{
    "links": {
        "self": "http://www.neowsapp.com/rest/v1/neo/54055090?api_key=iIulBulltgU6a56xZRHN4H3l9WmuAYTsLGpBGhQ2"
    },
    "id": "54055090",
    "neo_reference_id": "54055090",
    "name": "(2020 TS2)",
    "designation": "2020 TS2",
    "nasa_jpl_url": "http://ssd.jpl.nasa.gov/sbdb.cgi?sstr=54055090",
    "absolute_magnitude_h": 18.913,
    "estimated_diameter": {
        "kilometers": {
            "estimated_diameter_min": 0.4384852376,
            "estimated_diameter_max": 0.9804827983
        },
        "meters": {
            "estimated_diameter_min": 438.4852375689,
            "estimated_diameter_max": 980.4827983341
        },
        "miles": {
            "estimated_diameter_min": 0.2724620106,
            "estimated_diameter_max": 0.6092435769
        },
        "feet": {
            "estimated_diameter_min": 1438.5999068254,
            "estimated_diameter_max": 3216.8071840864
        }
    },
    "is_potentially_hazardous_asteroid": false,
    "close_approach_data": [
        {
            "close_approach_date": "2020-08-11",
            "close_approach_date_full": "2020-Aug-11 14:57",
            "epoch_date_close_approach": 1597157820000,
            "relative_velocity": {
                "kilometers_per_second": "61.1537430939",
                "kilometers_per_hour": "220153.4751381635",
                "miles_per_hour": "136794.8079268216"
            },
            "miss_distance": {
                "astronomical": "0.0827812043",
                "lunar": "32.2018884727",
                "kilometers": "12383891.839314841",
                "miles": "7694993.5673571658"
            },
            "orbiting_body": "Merc"
        },
        {
            "close_approach_date": "2020-09-17",
            "close_approach_date_full": "2020-Sep-17 05:22",
            "epoch_date_close_approach": 1600320120000,
            "relative_velocity": {
                "kilometers_per_second": "43.4358247005",
                "kilometers_per_hour": "156368.9689217982",
                "miles_per_hour": "97161.5962725473"
            },
            "miss_distance": {
                "astronomical": "0.2468030796",
                "lunar": "96.0063979644",
                "kilometers": "36921215.017600452",
                "miles": "22941779.1875001576"
            },
            "orbiting_body": "Earth"
        }
    ],
    "orbital_data": {
        "orbit_id": "4",
        "orbit_determination_date": "2020-10-24 07:46:22",
        "first_observation_date": "2020-10-02",
        "last_observation_date": "2020-10-23",
        "data_arc_in_days": 21,
        "observations_used": 30,
        "orbit_uncertainty": "8",
        "minimum_orbit_intersection": ".202264",
        "jupiter_tisserand_invariant": "2.483",
        "epoch_osculation": "2459133.5",
        "eccentricity": ".9496973815569638",
        "semi_major_axis": "2.508593262242166",
        "inclination": "20.13827398896462",
        "ascending_node_longitude": "134.0598663259171",
        "orbital_period": "1451.25525083536",
        "perihelion_distance": ".1261888096993391",
        "perihelion_argument": "73.79562258952485",
        "aphelion_distance": "4.890997714784993",
        "perihelion_time": "2459079.387576754531",
        "mean_anomaly": "13.42318820700607",
        "mean_motion": ".2480611179823672",
        "equinox": "J2000",
        "orbit_class": {
            "orbit_class_type": "APO",
            "orbit_class_description": "Near-Earth asteroid orbits which cross the Earth’s orbit similar to that of 1862 Apollo",
            "orbit_class_range": "a (semi-major axis) > 1.0 AU; q (perihelion) < 1.017 AU"
        }
    },
    "is_sentry_object": false
}